JILIN-1 07              
1 43159U 18008E   26197.29835787  .00004551  00000+0  13550-3 0  9994
2 43159  97.1763 216.4584 0006626 323.3640  36.7150 15.35174434469466
JILIN-1 08              
1 43160U 18008F   26197.25399568  .00003136  00000+0  97577-4 0  9994
2 43160  97.1802 215.6986 0005184 348.5600  11.5524 15.34016696469406
S-NET D                 
1 43186U 18014G   26197.15875205  .00002432  00000+0  12677-3 0  9990
2 43186  97.5332 101.7697 0006204 280.7404  79.3131 15.16922087463155
S-NET B                 
1 43187U 18014H   26196.64304467  .00002463  00000+0  12848-3 0  9995
2 43187  97.5338 101.2446 0006841 276.7896  83.2558 15.16889958463073
S-NET A                 
1 43188U 18014J   26197.15746984  .00002441  00000+0  12718-3 0  9999
2 43188  97.5347 101.9704 0006697 275.6423  84.4047 15.16930379463150
S-NET C                 
1 43189U 18014K   26197.17480650  .00002207  00000+0  11548-3 0  9997
2 43189  97.5365 102.0665 0008078 266.1983  93.8327 15.16883030461705
PAZ                     
1 43215U 18020A   26197.28666123  .00000865  00000+0  44365-4 0  9999
2 43215  97.4456 204.2591 0001703  88.0230 272.1200 15.19145107465426
GOES 17                 
1 43226U 18022A   26197.30423661 -.00000194  00000+0  00000+0 0  9993
2 43226   1.0098  85.2390 0000575  76.8342 152.0926  1.00270955 30716
LKW-4                   
1 43236U 18025A   26197.00892734  .00030215  00000+0  31395-3 0  9996
2 43236  97.6351  10.1948 0003404 182.4160 177.7083 15.64576037464536
ZHUHAI-1 OVS-02         
1 43440U 18040B   26197.29541131  .00003379  00000+0  13648-3 0  9995
2 43440  97.0380 212.8042 0005143 132.9659 227.2012 15.25384639457155
ZHUHAI-1 OHS-02         
1 43441U 18040C   26197.32942833  .00004159  00000+0  16273-3 0  9998
2 43441  97.0357 219.8048 0011270 121.8678 238.3660 15.26277056118723
GAOFEN-6                
1 43484U 18048A   26197.28085132  .00000524  00000+0  82901-4 0  9992
2 43484  98.0960 259.9853 0012107  78.5698 281.6870 14.76385178437682
LUOJIA-1 01             
1 43485U 18048B   26197.30454943  .00001107  00000+0  12836-3 0  9993
2 43485  97.8101 275.0246 0009677  34.2310 325.9528 14.87383231438548
PAKTES 1A               
1 43529U 18056A   26197.23908582  .00000932  00000+0  81618-4 0  9996
2 43529  98.1288 354.9648 0019771  16.8705 343.3170 14.99206690436271
PRSS-1                  
1 43530U 18056B   26197.28978162  .00000730  00000+0  98406-4 0  9993
2 43530  97.7811 264.3523 0001283  86.6741 273.4619 14.82031092432743
HAIYANG-1C              
1 43609U 18068A   26197.26772552 -.00000129  00000+0 -30451-4 0  9996
2 43609  98.5185 269.1537 0011110  15.2873 344.8645 14.34186294411252
SSTL S1-4               
1 43618U 18071A   26197.24719007  .00000594  00000+0  57504-4 0  9996
2 43618  97.4984  67.6462 0002296  96.2606 263.8877 14.96204457427280
HAIYANG-2B              
1 43655U 18081A   26197.32356791  .00000276  00000+0  31141-3 0  9999
2 43655  99.3283 205.6405 0000951 145.6747 214.4466 13.79307419388943
CFOSAT                  
1 43662U 18083A   26196.92928442  .00001708  00000+0  90896-4 0  9996
2 43662  97.3616 200.6163 0001830  75.6723 284.4713 15.16538301426795
TEN-KOH                 
1 43677U 18084G   26197.28357459  .00001568  00000+0  12124-3 0  9998
2 43677  98.0761  30.8711 0009820  27.3315 332.8424 15.03049898420537
DIWATA-2B               
1 43678U 18084H   26197.24454330  .00000989  00000+0  83460-4 0  9999
2 43678  98.1210  34.7252 0012774  81.1103 279.1566 15.00565233420573
STARS-AO                
1 43679U 18084J   26197.09239268  .00003203  00000+0  16430-3 0  9998
2 43679  98.0470  52.8473 0003537  78.9471 281.2159 15.17350453421854
AUTCUBE 2               
1 43681U 18084K   26197.11898438  .00002005  00000+0  12683-3 0  9999
2 43681  98.0686  44.8283 0007718 311.0756  48.9805 15.10268755421298
METOP-C                 
1 43689U 18087A   26196.57486992  .00000053  00000+0  44045-4 0  9996
2 43689  98.6630 255.6574 0002216  93.2289 266.9142 14.21519167398863
ES'HAIL 2               
1 43700U 18090A   26197.27502971  .00000133  00000+0  00000+0 0  9995
2 43700   0.0165  53.3784 0002244 105.6197 259.8961  1.00271498 27965
MOHAMMED VI-B           
1 43717U 18095A   26197.30597049  .00000547  00000+0  84726-4 0  9993
2 43717  97.9552 269.2279 0001750  92.8734 267.2677 14.77083203412485
HYSIS                   
1 43719U 18096A   26197.30976006  .00000346  00000+0  54264-4 0  9991
2 43719  97.9831 263.8274 0001816  83.1047 277.0371 14.78671502411727
COSMOS 2530 (RODNIK-S *)
1 43751U 18097A   26197.27526433  .00000022  00000+0  88051-4 0  9991
2 43751  82.5115 204.2278 0018922 336.5584  23.4631 12.42882017345900
COSMOS 2531 (RODNIK-S *)
1 43752U 18097B   26197.29681992 -.00000028  00000+0 -27585-3 0  9998
2 43752  82.5160 205.2827 0016536 356.6263   3.4702 12.42913213345920
