OBJECT_NAME,OBJECT_ID,EPOCH,MEAN_MOTION,ECCENTRICITY,INCLINATION,RA_OF_ASC_NODE,ARG_OF_PERICENTER,MEAN_ANOMALY,EPHEMERIS_TYPE,CLASSIFICATION_TYPE,NORAD_CAT_ID,ELEMENT_SET_NO,REV_AT_EPOCH,BSTAR,MEAN_MOTION_DOT,MEAN_MOTION_DDOT
JILIN-1 07,2018-008E,2026-07-16T07:09:38.119968,15.35174434,.00066264,97.1763,216.4584,323.3640,36.7150,0,U,43159,999,46946,.13549797E-3,.4551E-4,0
JILIN-1 08,2018-008F,2026-07-16T06:05:45.226752,15.34016696,.00051842,97.1802,215.6986,348.5600,11.5524,0,U,43160,999,46940,.97577433E-4,.3136E-4,0
S-NET D,2018-014G,2026-07-16T03:48:36.177120,15.16922087,.00062042,97.5332,101.7697,280.7404,79.3131,0,U,43186,999,46315,.12676543E-3,.2432E-4,0
S-NET B,2018-014H,2026-07-15T15:25:59.059488,15.16889958,.00068413,97.5338,101.2446,276.7896,83.2558,0,U,43187,999,46307,.12847658E-3,.2463E-4,0
S-NET A,2018-014J,2026-07-16T03:46:45.394176,15.16930379,.00066976,97.5347,101.9704,275.6423,84.4047,0,U,43188,999,46315,.12718385E-3,.2441E-4,0
S-NET C,2018-014K,2026-07-16T04:11:43.281600,15.16883030,.00080783,97.5365,102.0665,266.1983,93.8327,0,U,43189,999,46170,.11548223E-3,.2207E-4,0
PAZ,2018-020A,2026-07-16T06:52:47.530272,15.19145107,.00017038,97.4456,204.2591,88.0230,272.1200,0,U,43215,999,46542,.44365399E-4,.865E-5,0
GOES 17,2018-022A,2026-07-16T07:18:06.043104,1.00270955,.00005753,1.0098,85.2390,76.8342,152.0926,0,U,43226,999,3071,0,-.194E-5,0
LKW-4,2018-025A,2026-07-16T00:12:51.322176,15.64576037,.00034049,97.6351,10.1948,182.4160,177.7083,0,U,43236,999,46453,.3139468E-3,.30215E-3,0
ZHUHAI-1 OVS-02,2018-040B,2026-07-16T07:05:23.537184,15.25384639,.0005143,97.0380,212.8042,132.9659,227.2012,0,U,43440,999,45715,.13648079E-3,.3379E-4,0
ZHUHAI-1 OHS-02,2018-040C,2026-07-16T07:54:22.607712,15.26277056,.00112704,97.0357,219.8048,121.8678,238.3660,0,U,43441,999,11872,.1627348E-3,.4159E-4,0
GAOFEN-6,2018-048A,2026-07-16T06:44:25.554048,14.76385178,.00121072,98.0960,259.9853,78.5698,281.6870,0,U,43484,999,43768,.82901214E-4,.524E-5,0
LUOJIA-1 01,2018-048B,2026-07-16T07:18:33.070752,14.87383231,.00096772,97.8101,275.0246,34.2310,325.9528,0,U,43485,999,43854,.12836129E-3,.1107E-4,0
PAKTES 1A,2018-056A,2026-07-16T05:44:17.014848,14.99206690,.0019771,98.1288,354.9648,16.8705,343.3170,0,U,43529,999,43627,.81618039E-4,.932E-5,0
PRSS-1,2018-056B,2026-07-16T06:57:17.131968,14.82031092,.0001283,97.7811,264.3523,86.6741,273.4619,0,U,43530,999,43274,.98406394E-4,.73E-5,0
HAIYANG-1C,2018-068A,2026-07-16T06:25:31.484928,14.34186294,.00111106,98.5185,269.1537,15.2873,344.8645,0,U,43609,999,41125,-.3045058E-4,-.129E-5,0
SSTL S1-4,2018-071A,2026-07-16T05:55:57.222048,14.96204457,.00022965,97.4984,67.6462,96.2606,263.8877,0,U,43618,999,42728,.57503501E-4,.594E-5,0
HAIYANG-2B,2018-081A,2026-07-16T07:45:56.267424,13.79307419,.00009513,99.3283,205.6405,145.6747,214.4466,0,U,43655,999,38894,.31141074E-3,.276E-5,0
CFOSAT,2018-083A,2026-07-15T22:18:10.173888,15.16538301,.000183,97.3616,200.6163,75.6723,284.4713,0,U,43662,999,42679,.90896E-4,.1708E-4,0
TEN-KOH,2018-084G,2026-07-16T06:48:20.844576,15.03049898,.00098205,98.0761,30.8711,27.3315,332.8424,0,U,43677,999,42053,.12124454E-3,.1568E-4,0
DIWATA-2B,2018-084H,2026-07-16T05:52:08.541120,15.00565233,.00127747,98.1210,34.7252,81.1103,279.1566,0,U,43678,999,42057,.83460393E-4,.989E-5,0
STARS-AO,2018-084J,2026-07-16T02:13:02.727552,15.17350453,.00035372,98.0470,52.8473,78.9471,281.2159,0,U,43679,999,42185,.16429948E-3,.3203E-4,0
AUTCUBE 2,2018-084K,2026-07-16T02:51:20.250432,15.10268755,.00077181,98.0686,44.8283,311.0756,48.9805,0,U,43681,999,42129,.12682788E-3,.2005E-4,0
METOP-C,2018-087A,2026-07-15T13:47:48.761088,14.21519167,.0002216,98.6630,255.6574,93.2289,266.9142,0,U,43689,999,39886,.44045E-4,.53E-6,0
ES'HAIL 2,2018-090A,2026-07-16T06:36:02.566944,1.00271498,.00022446,0.0165,53.3784,105.6197,259.8961,0,U,43700,999,2796,0,.133E-5,0
MOHAMMED VI-B,2018-095A,2026-07-16T07:20:35.850336,14.77083203,.00017505,97.9552,269.2279,92.8734,267.2677,0,U,43717,999,41248,.84726072E-4,.547E-5,0
HYSIS,2018-096A,2026-07-16T07:26:03.269184,14.78671502,.00018168,97.9831,263.8274,83.1047,277.0371,0,U,43719,999,41172,.54263719E-4,.346E-5,0
COSMOS 2530 (RODNIK-S 16),2018-097A,2026-07-16T06:36:22.838112,12.42882017,.00189225,82.5115,204.2278,336.5584,23.4631,0,U,43751,999,34590,.88051377E-4,.22E-6,0
COSMOS 2531 (RODNIK-S 17),2018-097B,2026-07-16T07:07:25.241088,12.42913213,.00165361,82.5160,205.2827,356.6263,3.4702,0,U,43752,999,34592,-.2758529E-3,-.28E-6,0
